{
  "type": "FeatureCollection",
  "features": [
    {
      "type": "Feature",
      "properties": {
        "norad_id": 31194,
        "name": "FENGYUN 1C DEB",
        "group": "fengyun-1c-debris",
        "lat": 64.34526956626901,
        "lon": -137.91930903393478,
        "alt_km": 802.0047745350439,
        "timestamp": "2025-12-17T23:38:07.134994+00:00",
        "meta_object_name": "FENGYUN 1C DEB",
        "meta_object_id": "1999-025BJY",
        "meta_epoch": "2025-12-17T03:16:12.436320",
        "meta_mean_motion": 14.3667618,
        "meta_eccentricity": 0.00570782,
        "meta_inclination": 98.9641,
        "meta_ra_of_asc_node": 240.384,
        "meta_arg_of_pericenter": 266.1914,
        "meta_mean_anomaly": 93.2744,
        "meta_ephemeris_type": 0,
        "meta_classification_type": "U",
        "meta_norad_cat_id": 31194,
        "meta_element_set_no": 999,
        "meta_rev_at_epoch": 97190,
        "meta_bstar": 0.00077644031,
        "meta_mean_motion_dot": 2.282e-05,
        "meta_mean_motion_ddot": 0,
        "tle_line1": "1 31194U 99025BJY 25351.13625505  .00002282  00000+0  77644-3 0  9990",
        "tle_line2": "2 31194  98.9641 240.3840 0057078 266.1914  93.2744 14.36676180971901"
      },
      "geometry": {
        "type": "Point",
        "coordinates": [
          -137.91930903393478,
          64.34526956626901
        ]
      }
    },
    {
      "type": "Feature",
      "properties": {
        "norad_id": 31195,
        "name": "FENGYUN 1C DEB",
        "group": "fengyun-1c-debris",
        "lat": 31.85591422867127,
        "lon": 19.651769502082736,
        "alt_km": 949.956894868481,
        "timestamp": "2025-12-17T23:38:07.135004+00:00",
        "meta_object_name": "FENGYUN 1C DEB",
        "meta_object_id": "1999-025BJZ",
        "meta_epoch": "2025-12-17T13:14:40.818912",
        "meta_mean_motion": 14.07982038,
        "meta_eccentricity": 0.0172119,
        "meta_inclination": 98.7787,
        "meta_ra_of_asc_node": 24.7405,
        "meta_arg_of_pericenter": 167.629,
        "meta_mean_anomaly": 192.9188,
        "meta_ephemeris_type": 0,
        "meta_classification_type": "U",
        "meta_norad_cat_id": 31195,
        "meta_element_set_no": 999,
        "meta_rev_at_epoch": 96166,
        "meta_bstar": 5.7495276e-05,
        "meta_mean_motion_dot": 7e-07,
        "meta_mean_motion_ddot": 0,
        "tle_line1": "1 31195U 99025BJZ 25351.55186133  .00000070  00000+0  57495-4 0  9992",
        "tle_line2": "2 31195  98.7787  24.7405 0172119 167.6290 192.9188 14.07982038961669"
      },
      "geometry": {
        "type": "Point",
        "coordinates": [
          19.651769502082736,
          31.85591422867127
        ]
      }
    },
    {
      "type": "Feature",
      "properties": {
        "norad_id": 31196,
        "name": "FENGYUN 1C DEB",
        "group": "fengyun-1c-debris",
        "lat": -49.85318418961122,
        "lon": 15.308346081410585,
        "alt_km": 829.6301658284692,
        "timestamp": "2025-12-17T23:38:07.135014+00:00",
        "meta_object_name": "FENGYUN 1C DEB",
        "meta_object_id": "1999-025BKA",
        "meta_epoch": "2025-12-15T07:51:30.779712",
        "meta_mean_motion": 14.25465548,
        "meta_eccentricity": 0.0058,
        "meta_inclination": 98.5267,
        "meta_ra_of_asc_node": 2.4794,
        "meta_arg_of_pericenter": 204.541,
        "meta_mean_anomaly": 155.3007,
        "meta_ephemeris_type": 0,
        "meta_classification_type": "U",
        "meta_norad_cat_id": 31196,
        "meta_element_set_no": 999,
        "meta_rev_at_epoch": 63532,
        "meta_bstar": 0.00053993549,
        "meta_mean_motion_dot": 1.255e-05,
        "meta_mean_motion_ddot": 0,
        "tle_line1": "1 31196U 99025BKA 25349.32743958  .00001255  00000+0  53994-3 0  9994",
        "tle_line2": "2 31196  98.5267   2.4794 0058000 204.5410 155.3007 14.25465548635328"
      },
      "geometry": {
        "type": "Point",
        "coordinates": [
          15.308346081410585,
          -49.85318418961122
        ]
      }
    },
    {
      "type": "Feature",
      "properties": {
        "norad_id": 31198,
        "name": "FENGYUN 1C DEB",
        "group": "fengyun-1c-debris",
        "lat": 69.14386785610765,
        "lon": -61.208621153497376,
        "alt_km": 1070.8053745178086,
        "timestamp": "2025-12-17T23:38:07.135025+00:00",
        "meta_object_name": "FENGYUN 1C DEB",
        "meta_object_id": "1999-025BKC",
        "meta_epoch": "2025-12-15T23:58:38.861760",
        "meta_mean_motion": 13.75522103,
        "meta_eccentricity": 0.02036918,
        "meta_inclination": 98.6127,
        "meta_ra_of_asc_node": 93.5551,
        "meta_arg_of_pericenter": 342.7855,
        "meta_mean_anomaly": 16.6458,
        "meta_ephemeris_type": 0,
        "meta_classification_type": "U",
        "meta_norad_cat_id": 31198,
        "meta_element_set_no": 999,
        "meta_rev_at_epoch": 62798,
        "meta_bstar": 9.2506103e-05,
        "meta_mean_motion_dot": 6.5e-07,
        "meta_mean_motion_ddot": 0,
        "tle_line1": "1 31198U 99025BKC 25349.99906090  .00000065  00000+0  92506-4 0  9998",
        "tle_line2": "2 31198  98.6127  93.5551 0203691 342.7855  16.6458 13.75522103627981"
      },
      "geometry": {
        "type": "Point",
        "coordinates": [
          -61.208621153497376,
          69.14386785610765
        ]
      }
    },
    {
      "type": "Feature",
      "properties": {
        "norad_id": 31199,
        "name": "FENGYUN 1C DEB",
        "group": "fengyun-1c-debris",
        "lat": -2.7438372429889974,
        "lon": 154.17669093828903,
        "alt_km": 840.9366168891183,
        "timestamp": "2025-12-17T23:38:07.135035+00:00",
        "meta_object_name": "FENGYUN 1C DEB",
        "meta_object_id": "1999-025BKD",
        "meta_epoch": "2025-12-15T04:38:25.255104",
        "meta_mean_motion": 14.0998934,
        "meta_eccentricity": 0.0063456,
        "meta_inclination": 98.7153,
        "meta_ra_of_asc_node": 331.894,
        "meta_arg_of_pericenter": 252.6703,
        "meta_mean_anomaly": 169.1973,
        "meta_ephemeris_type": 0,
        "meta_classification_type": "U",
        "meta_norad_cat_id": 31199,
        "meta_element_set_no": 999,
        "meta_rev_at_epoch": 96194,
        "meta_bstar": 0.00023583272,
        "meta_mean_motion_dot": 3.81e-06,
        "meta_mean_motion_ddot": 0,
        "tle_line1": "1 31199U 99025BKD 25349.19334786  .00000381  00000+0  23583-3 0  9997",
        "tle_line2": "2 31199  98.7153 331.8940 0063456 252.6703 169.1973 14.09989340961947"
      },
      "geometry": {
        "type": "Point",
        "coordinates": [
          154.17669093828903,
          -2.7438372429889974
        ]
      }
    },
    {
      "type": "Feature",
      "properties": {
        "norad_id": 31201,
        "name": "FENGYUN 1C DEB",
        "group": "fengyun-1c-debris",
        "lat": 29.078230132578856,
        "lon": 38.14515522118416,
        "alt_km": 874.4223787968367,
        "timestamp": "2025-12-17T23:38:07.135045+00:00",
        "meta_object_name": "FENGYUN 1C DEB",
        "meta_object_id": "1999-025BKF",
        "meta_epoch": "2025-12-17T08:41:53.577888",
        "meta_mean_motion": 14.35190454,
        "meta_eccentricity": 0.01424845,
        "meta_inclination": 99.0021,
        "meta_ra_of_asc_node": 212.4387,
        "meta_arg_of_pericenter": 337.8238,
        "meta_mean_anomaly": 198.624,
        "meta_ephemeris_type": 0,
        "meta_classification_type": "U",
        "meta_norad_cat_id": 31201,
        "meta_element_set_no": 999,
        "meta_rev_at_epoch": 97317,
        "meta_bstar": 0.00069336895,
        "meta_mean_motion_dot": 2.172e-05,
        "meta_mean_motion_ddot": 0,
        "tle_line1": "1 31201U 99025BKF 25351.36242567  .00002172  00000+0  69337-3 0  9995",
        "tle_line2": "2 31201  99.0021 212.4387 0142484 337.8238 198.6240 14.35190454973177"
      },
      "geometry": {
        "type": "Point",
        "coordinates": [
          38.14515522118416,
          29.078230132578856
        ]
      }
    },
    {
      "type": "Feature",
      "properties": {
        "norad_id": 31202,
        "name": "FENGYUN 1C DEB",
        "group": "fengyun-1c-debris",
        "lat": 37.19549433966798,
        "lon": -138.6658803607951,
        "alt_km": 567.7431454760699,
        "timestamp": "2025-12-17T23:38:07.135060+00:00",
        "meta_object_name": "FENGYUN 1C DEB",
        "meta_object_id": "1999-025BKG",
        "meta_epoch": "2025-12-16T09:50:29.632416",
        "meta_mean_motion": 14.84147368,
        "meta_eccentricity": 0.00685834,
        "meta_inclination": 96.573,
        "meta_ra_of_asc_node": 35.0154,
        "meta_arg_of_pericenter": 164.9342,
        "meta_mean_anomaly": 209.2499,
        "meta_ephemeris_type": 0,
        "meta_classification_type": "U",
        "meta_norad_cat_id": 31202,
        "meta_element_set_no": 999,
        "meta_rev_at_epoch": 99209,
        "meta_bstar": 0.00070827662,
        "meta_mean_motion_dot": 6.131e-05,
        "meta_mean_motion_ddot": 0,
        "tle_line1": "1 31202U 99025BKG 25350.41006519  .00006131  00000+0  70828-3 0  9992",
        "tle_line2": "2 31202  96.5730  35.0154 0068583 164.9342 209.2499 14.84147368992097"
      },
      "geometry": {
        "type": "Point",
        "coordinates": [
          -138.6658803607951,
          37.19549433966798
        ]
      }
    }
  ]
}